<?xml version="1.0" encoding="ISO-8859-1"?><kml xmlns="http://earth.google.com/kml/2.0">
 <Document>
 <description>Megalithic Portal data for Google Earth: Faroe_Islands_(Føroyar) In-depth information on megaliths, prehistoric and ancient sites of all sorts can be found at The Megalithic Portal and Megalith Map: http://www.megalithic.co.uk . Follow the links for more details of each location. Data is copyright and not to be re-used outside of Google Earth without permission (but you are welcome to ask). This data is provided without any warranty or guarantee of fitness for purpose, and is for personal use only.</description>
  <name>Megalithic Portal: Faroe_Islands_(Føroyar)</name>
    <Style id="1_g">
      <IconStyle>
        <Icon>
	<href>http://www.megalithic.co.uk/images/ge_icons_g.png</href>
        <x>0</x>
        <y>0</y>
        <w>32</w>
        <h>32</h>
        </Icon>
      </IconStyle>
    </Style>
    <Style id="2_g">
      <IconStyle>
        <Icon>
	<href>http://www.megalithic.co.uk/images/ge_icons_g.png</href>
        <x>32</x>
        <y>0</y>
        <w>32</w>
        <h>32</h>
        </Icon>
      </IconStyle>
    </Style>
    <Style id="3_g">
      <IconStyle>
        <Icon>
	<href>http://www.megalithic.co.uk/images/ge_icons_g.png</href>
        <x>64</x>
        <y>0</y>
        <w>32</w>
        <h>32</h>
        </Icon>
      </IconStyle>
    </Style>
     <Style id="4_g">
      <IconStyle>
        <Icon>
	<href>http://www.megalithic.co.uk/images/ge_icons_g.png</href>
        <x>96</x>
        <y>0</y>
        <w>32</w>
        <h>32</h>
        </Icon>
      </IconStyle>
    </Style>
    <Style id="5_g">
      <IconStyle>
        <Icon>
	<href>http://www.megalithic.co.uk/images/ge_icons_g.png</href>
        <x>128</x>
        <y>0</y>
        <w>32</w>
        <h>32</h>
        </Icon>
      </IconStyle>
    </Style>
    <Style id="6_g">
      <IconStyle>
        <Icon>
	<href>http://www.megalithic.co.uk/images/ge_icons_g.png</href>
        <x>160</x>
        <y>0</y>
        <w>32</w>
        <h>32</h>
        </Icon>
      </IconStyle>
    </Style>
    <Style id="7_g">
      <IconStyle>
        <Icon>
	<href>http://www.megalithic.co.uk/images/ge_icons_g.png</href>
        <x>192</x>
        <y>0</y>
        <w>32</w>
        <h>32</h>
        </Icon>
      </IconStyle>
    </Style>
    <Style id="8_g">
      <IconStyle>
        <Icon>
	<href>http://www.megalithic.co.uk/images/ge_icons_g.png</href>
        <x>224</x>
        <y>0</y>
        <w>32</w>
        <h>32</h>
        </Icon>
      </IconStyle>
    </Style>
    <Style id="9_g">
      <IconStyle>
        <Icon>
	<href>http://www.megalithic.co.uk/images/ge_icons_g.png</href>
        <x>256</x>
        <y>32</y>
        <w>32</w>
        <h>32</h>
        </Icon>
      </IconStyle>
    </Style>
    <Style id="10_g">
      <IconStyle>
        <Icon>
	<href>http://www.megalithic.co.uk/images/ge_icons_g.png</href>
        <x>288</x>
        <y>32</y>
        <w>32</w>
        <h>32</h>
        </Icon>
      </IconStyle>
    </Style>
    <Style id="11_g">
      <IconStyle>
        <Icon>
	<href>http://www.megalithic.co.uk/images/ge_icons_g.png</href>
        <x>0</x>
        <y>32</y>
        <w>32</w>
        <h>32</h>
        </Icon>
      </IconStyle>
    </Style>
    <Style id="12_g">
      <IconStyle>
        <Icon>
	<href>http://www.megalithic.co.uk/images/ge_icons_g.png</href>
        <x>32</x>
        <y>32</y>
        <w>32</w>
        <h>32</h>
        </Icon>
      </IconStyle>
    </Style>
    <Style id="13_g">
      <IconStyle>
        <Icon>
	<href>http://www.megalithic.co.uk/images/ge_icons_g.png</href>
        <x>64</x>
        <y>32</y>
        <w>32</w>
        <h>32</h>
        </Icon>
      </IconStyle>
    </Style>
    <Style id="14_g">
      <IconStyle>
        <Icon>
	<href>http://www.megalithic.co.uk/images/ge_icons_g.png</href>
        <x>96</x>
        <y>32</y>
        <w>32</w>
        <h>32</h>
        </Icon>
      </IconStyle>
    </Style>
    <Style id="15_g">
      <IconStyle>
        <Icon>
	<href>http://www.megalithic.co.uk/images/ge_icons_g.png</href>
        <x>128</x>
        <y>32</y>
        <w>32</w>
        <h>32</h>
        </Icon>
      </IconStyle>
    </Style>
    <Style id="16_g">
      <IconStyle>
        <Icon>
	<href>http://www.megalithic.co.uk/images/ge_icons_g.png</href>
        <x>160</x>
        <y>32</y>
        <w>32</w>
        <h>32</h>
        </Icon>
      </IconStyle>
    </Style>
    <Style id="17_g">
      <IconStyle>
        <Icon>
	<href>http://www.megalithic.co.uk/images/ge_icons_g.png</href>
        <x>192</x>
        <y>32</y>
        <w>32</w>
        <h>32</h>
        </Icon>
      </IconStyle>
    </Style>
    <Style id="18_g">
      <IconStyle>
        <Icon>
	<href>http://www.megalithic.co.uk/images/ge_icons_g.png</href>
        <x>224</x>
        <y>32</y>
        <w>32</w>
        <h>32</h>
        </Icon>
      </IconStyle>
    </Style>
    <Style id="19_g">
      <IconStyle>
        <Icon>
	<href>http://www.megalithic.co.uk/images/ge_icons_g.png</href>
        <x>256</x>
        <y>32</y>
        <w>32</w>
        <h>32</h>
        </Icon>
      </IconStyle>
    </Style>
    <Style id="20_g">
      <IconStyle>
        <Icon>
	<href>http://www.megalithic.co.uk/images/ge_icons_g.png</href>
        <x>288</x>
        <y>32</y>
        <w>32</w>
        <h>32</h>
        </Icon>
      </IconStyle>
    </Style>
    <Style id="21_g">
      <IconStyle>
        <Icon>
	<href>http://www.megalithic.co.uk/images/ge_icons_g.png</href>
        <x>0</x>
        <y>64</y>
        <w>32</w>
        <h>32</h>
        </Icon>
      </IconStyle>
    </Style>
    <Style id="22_g">
      <IconStyle>
        <Icon>
	<href>http://www.megalithic.co.uk/images/ge_icons_g.png</href>
        <x>32</x>
        <y>64</y>
        <w>32</w>
        <h>32</h>
        </Icon>
      </IconStyle>
    </Style>
    <Style id="23_g">
      <IconStyle>
        <Icon>
	<href>http://www.megalithic.co.uk/images/ge_icons_g.png</href>
        <x>64</x>
        <y>64</y>
        <w>32</w>
        <h>32</h>
        </Icon>
      </IconStyle>
    </Style>
    <Style id="24_g">
      <IconStyle>
        <Icon>
	<href>http://www.megalithic.co.uk/images/ge_icons_g.png</href>
        <x>96</x>
        <y>64</y>
        <w>32</w>
        <h>32</h>
        </Icon>
      </IconStyle>
    </Style>
    <Style id="25_g">
      <IconStyle>
        <Icon>
	<href>http://www.megalithic.co.uk/images/ge_icons_g.png</href>
        <x>128</x>
        <y>64</y>
        <w>32</w>
        <h>32</h>
        </Icon>
      </IconStyle>
    </Style>
    <Style id="26_g">
      <IconStyle>
        <Icon>
	<href>http://www.megalithic.co.uk/images/ge_icons_g.png</href>
        <x>160</x>
        <y>64</y>
        <w>32</w>
        <h>32</h>
        </Icon>
      </IconStyle>
    </Style>
    <Style id="27_g">
      <IconStyle>
        <Icon>
	<href>http://www.megalithic.co.uk/images/ge_icons_g.png</href>
        <x>192</x>
        <y>64</y>
        <w>32</w>
        <h>32</h>
        </Icon>
      </IconStyle>
    </Style>
    <Style id="28_g">
      <IconStyle>
        <Icon>
	<href>http://www.megalithic.co.uk/images/ge_icons_g.png</href>
        <x>224</x>
        <y>64</y>
        <w>32</w>
        <h>32</h>
        </Icon>
      </IconStyle>
    </Style>
    <Style id="29_g">
      <IconStyle>
        <Icon>
	<href>http://www.megalithic.co.uk/images/ge_icons_g.png</href>
        <x>256</x>
        <y>64</y>
        <w>32</w>
        <h>32</h>
        </Icon>
      </IconStyle>
    </Style>
    <Style id="30_g">
      <IconStyle>
        <Icon>
	<href>http://www.megalithic.co.uk/images/ge_icons_g.png</href>
        <x>288</x>
        <y>64</y>
        <w>32</w>
        <h>32</h>
        </Icon>
      </IconStyle>
    </Style>
    <Style id="31_g">
      <IconStyle>
        <Icon>
	<href>http://www.megalithic.co.uk/images/ge_icons_g.png</href>
        <x>0</x>
        <y>96</y>
        <w>32</w>
        <h>32</h>
        </Icon>
      </IconStyle>
    </Style>
    <Style id="32_g">
      <IconStyle>
        <Icon>
	<href>http://www.megalithic.co.uk/images/ge_icons_g.png</href>
        <x>32</x>
        <y>96</y>
        <w>32</w>
        <h>32</h>
        </Icon>
      </IconStyle>
    </Style>
    <Style id="33_g">
      <IconStyle>
        <Icon>
	<href>http://www.megalithic.co.uk/images/ge_icons_g.png</href>
        <x>64</x>
        <y>96</y>
        <w>32</w>
        <h>32</h>
        </Icon>
      </IconStyle>
    </Style>
    <Style id="34_g">
      <IconStyle>
        <Icon>
	<href>http://www.megalithic.co.uk/images/ge_icons_g.png</href>
        <x>96</x>
        <y>96</y>
        <w>32</w>
        <h>32</h>
        </Icon>
      </IconStyle>
    </Style>
    <Style id="35_g">
      <IconStyle>
        <Icon>
	<href>http://www.megalithic.co.uk/images/ge_icons_g.png</href>
        <x>128</x>
        <y>96</y>
        <w>32</w>
        <h>32</h>
        </Icon>
      </IconStyle>
    </Style>
    <Style id="36_g">
      <IconStyle>
        <Icon>
	<href>http://www.megalithic.co.uk/images/ge_icons_g.png</href>
        <x>160</x>
        <y>96</y>
        <w>32</w>
        <h>32</h>
        </Icon>
      </IconStyle>
    </Style>
    <Style id="37_g">
      <IconStyle>
        <Icon>
	<href>http://www.megalithic.co.uk/images/ge_icons_g.png</href>
        <x>192</x>
        <y>96</y>
        <w>32</w>
        <h>32</h>
        </Icon>
      </IconStyle>
    </Style>
    <Style id="38_g">
      <IconStyle>
        <Icon>
	<href>http://www.megalithic.co.uk/images/ge_icons_g.png</href>
        <x>224</x>
        <y>96</y>
        <w>32</w>
        <h>32</h>
        </Icon>
      </IconStyle>
    </Style>
    <Style id="39_g">
      <IconStyle>
        <Icon>
	<href>http://www.megalithic.co.uk/images/ge_icons_g.png</href>
        <x>256</x>
        <y>96</y>
        <w>32</w>
        <h>32</h>
        </Icon>
      </IconStyle>
    </Style>
    <Style id="40_g">
      <IconStyle>
        <Icon>
	<href>http://www.megalithic.co.uk/images/ge_icons_g.png</href>
        <x>288</x>
        <y>96</y>
        <w>32</w>
        <h>32</h>
        </Icon>
      </IconStyle>
    </Style>
    <Style id="41_g">
      <IconStyle>
        <Icon>
	<href>http://www.megalithic.co.uk/images/ge_icons_g.png</href>
        <x>0</x>
        <y>128</y>
        <w>32</w>
        <h>32</h>
        </Icon>
      </IconStyle>
    </Style>
    <Style id="42_g">
      <IconStyle>
        <Icon>
	<href>http://www.megalithic.co.uk/images/ge_icons_g.png</href>
        <x>32</x>
        <y>128</y>
        <w>32</w>
        <h>32</h>
        </Icon>
      </IconStyle>
    </Style>
    <Style id="43_g">
      <IconStyle>
        <Icon>
	<href>http://www.megalithic.co.uk/images/ge_icons_g.png</href>
        <x>64</x>
        <y>128</y>
        <w>32</w>
        <h>32</h>
        </Icon>
      </IconStyle>
    </Style>
    <Style id="44_g">
      <IconStyle>
        <Icon>
	<href>http://www.megalithic.co.uk/images/ge_icons_g.png</href>
        <x>96</x>
        <y>128</y>
        <w>32</w>
        <h>32</h>
        </Icon>
      </IconStyle>
    </Style>
    <Style id="45_g">
      <IconStyle>
        <Icon>
	<href>http://www.megalithic.co.uk/images/ge_icons_g.png</href>
        <x>128</x>
        <y>128</y>
        <w>32</w>
        <h>32</h>
        </Icon>
      </IconStyle>
    </Style>
    <Style id="46_g">
      <IconStyle>
        <Icon>
	<href>http://www.megalithic.co.uk/images/ge_icons_g.png</href>
        <x>160</x>
        <y>128</y>
        <w>32</w>
        <h>32</h>
        </Icon>
      </IconStyle>
    </Style>
    <Style id="47_g">
      <IconStyle>
        <Icon>
	<href>http://www.megalithic.co.uk/images/ge_icons_g.png</href>
        <x>192</x>
        <y>128</y>
        <w>32</w>
        <h>32</h>
        </Icon>
      </IconStyle>
    </Style>
    <Style id="48_g">
      <IconStyle>
        <Icon>
	<href>http://www.megalithic.co.uk/images/ge_icons_g.png</href>
        <x>224</x>
        <y>128</y>
        <w>32</w>
        <h>32</h>
        </Icon>
      </IconStyle>
    </Style>
    <Style id="58_g">
      <IconStyle>
        <Icon>
	<href>http://www.megalithic.co.uk/images/ge_icons_g.png</href>
        <x>224</x>
        <y>160</y>
        <w>32</w>
        <h>32</h>
        </Icon>
      </IconStyle>
    </Style>
    <Style id="59_g">
      <IconStyle>
        <Icon>
	<href>http://www.megalithic.co.uk/images/ge_icons_g.png</href>
        <x>256</x>
        <y>160</y>
        <w>32</w>
        <h>32</h>
        </Icon>
      </IconStyle>
    </Style>    
    <Style id="60_g">
      <IconStyle>
        <Icon>
	<href>http://www.megalithic.co.uk/images/ge_icons_g.png</href>
        <x>288</x>
        <y>160</y>
        <w>32</w>
        <h>32</h>
        </Icon>
      </IconStyle>
    </Style>
    <Style id="61_g">
      <IconStyle>
        <Icon>
	<href>http://www.megalithic.co.uk/images/ge_icons_g.png</href>
        <x>0</x>
        <y>192</y>
        <w>32</w>
        <h>32</h>
        </Icon>
      </IconStyle>
    </Style>
    <Style id="62_g">
      <IconStyle>
        <Icon>
	<href>http://www.megalithic.co.uk/images/ge_icons_g.png</href>
        <x>32</x>
        <y>192</y>
        <w>32</w>
        <h>32</h>
        </Icon>
      </IconStyle>
    </Style>
    <Style id="63_g">
      <IconStyle>
        <Icon>
	<href>http://www.megalithic.co.uk/images/ge_icons_g.png</href>
        <x>64</x>
        <y>192</y>
        <w>32</w>
        <h>32</h>
        </Icon>
      </IconStyle>
    </Style>
     <Style id="64_g">
      <IconStyle>
        <Icon>
	<href>http://www.megalithic.co.uk/images/ge_icons_g.png</href>
        <x>96</x>
        <y>192</y>
        <w>32</w>
        <h>32</h>
        </Icon>
      </IconStyle>
    </Style>
    <Style id="65_g">
      <IconStyle>
        <Icon>
	<href>http://www.megalithic.co.uk/images/ge_icons_g.png</href>
        <x>128</x>
        <y>192</y>
        <w>32</w>
        <h>32</h>
        </Icon>
      </IconStyle>
    </Style>
    <Style id="66_g">
      <IconStyle>
        <Icon>
	<href>http://www.megalithic.co.uk/images/ge_icons_g.png</href>
        <x>160</x>
        <y>192</y>
        <w>32</w>
        <h>32</h>
        </Icon>
      </IconStyle>
    </Style>
    <Style id="67_g">
      <IconStyle>
        <Icon>
	<href>http://www.megalithic.co.uk/images/ge_icons_g.png</href>
        <x>192</x>
        <y>192</y>
        <w>32</w>
        <h>32</h>
        </Icon>
      </IconStyle>
    </Style>
    <Style id="68_g">
      <IconStyle>
        <Icon>
	<href>http://www.megalithic.co.uk/images/ge_icons_g.png</href>
        <x>224</x>
        <y>192</y>
        <w>32</w>
        <h>32</h>
        </Icon>
      </IconStyle>
    </Style>
    <Style id="69_g">
      <IconStyle>
        <Icon>
	<href>http://www.megalithic.co.uk/images/ge_icons_g.png</href>
        <x>256</x>
        <y>192</y>
        <w>32</w>
        <h>32</h>
        </Icon>
      </IconStyle>
    </Style>
    <Style id="1050034310_g">
      <IconStyle>
        <Icon>
	<href>http://www.megalithic.co.uk/images/ge_icons_g.png</href>
        <x>0</x>
        <y>224</y>
        <w>32</w>
        <h>32</h>
        </Icon>
      </IconStyle>
    </Style>
    <Style id="1050034311_g">
      <IconStyle>
        <Icon>
	<href>http://www.megalithic.co.uk/images/ge_icons_g.png</href>
        <x>32</x>
        <y>224</y>
        <w>32</w>
        <h>32</h>
        </Icon>
      </IconStyle>
    </Style>
    <Style id="1050034312_g">
      <IconStyle>
        <Icon>
	<href>http://www.megalithic.co.uk/images/ge_icons_g.png</href>
        <x>64</x>
        <y>224</y>
        <w>32</w>
        <h>32</h>
        </Icon>
      </IconStyle>
    </Style>
    <Style id="1_r">
      <IconStyle>
        <Icon>
	<href>http://www.megalithic.co.uk/images/ge_icons_r.png</href>
        <x>0</x>
        <y>0</y>
        <w>32</w>
        <h>32</h>
        </Icon>
      </IconStyle>
    </Style>
    <Style id="2_r">
      <IconStyle>
        <Icon>
	<href>http://www.megalithic.co.uk/images/ge_icons_r.png</href>
        <x>32</x>
        <y>0</y>
        <w>32</w>
        <h>32</h>
        </Icon>
      </IconStyle>
    </Style>
    <Style id="3_r">
      <IconStyle>
        <Icon>
	<href>http://www.megalithic.co.uk/images/ge_icons_r.png</href>
        <x>64</x>
        <y>0</y>
        <w>32</w>
        <h>32</h>
        </Icon>
      </IconStyle>
    </Style>
     <Style id="4_r">
      <IconStyle>
        <Icon>
	<href>http://www.megalithic.co.uk/images/ge_icons_r.png</href>
        <x>96</x>
        <y>0</y>
        <w>32</w>
        <h>32</h>
        </Icon>
      </IconStyle>
    </Style>
    <Style id="5_r">
      <IconStyle>
        <Icon>
	<href>http://www.megalithic.co.uk/images/ge_icons_r.png</href>
        <x>128</x>
        <y>0</y>
        <w>32</w>
        <h>32</h>
        </Icon>
      </IconStyle>
    </Style>
    <Style id="6_r">
      <IconStyle>
        <Icon>
	<href>http://www.megalithic.co.uk/images/ge_icons_r.png</href>
        <x>160</x>
        <y>0</y>
        <w>32</w>
        <h>32</h>
        </Icon>
      </IconStyle>
    </Style>
    <Style id="7_r">
      <IconStyle>
        <Icon>
	<href>http://www.megalithic.co.uk/images/ge_icons_r.png</href>
        <x>192</x>
        <y>0</y>
        <w>32</w>
        <h>32</h>
        </Icon>
      </IconStyle>
    </Style>
    <Style id="8_r">
      <IconStyle>
        <Icon>
	<href>http://www.megalithic.co.uk/images/ge_icons_r.png</href>
        <x>224</x>
        <y>0</y>
        <w>32</w>
        <h>32</h>
        </Icon>
      </IconStyle>
    </Style>
    <Style id="9_r">
      <IconStyle>
        <Icon>
	<href>http://www.megalithic.co.uk/images/ge_icons_r.png</href>
        <x>256</x>
        <y>32</y>
        <w>32</w>
        <h>32</h>
        </Icon>
      </IconStyle>
    </Style>
    <Style id="10_r">
      <IconStyle>
        <Icon>
	<href>http://www.megalithic.co.uk/images/ge_icons_r.png</href>
        <x>288</x>
        <y>32</y>
        <w>32</w>
        <h>32</h>
        </Icon>
      </IconStyle>
    </Style>
    <Style id="11_r">
      <IconStyle>
        <Icon>
	<href>http://www.megalithic.co.uk/images/ge_icons_r.png</href>
        <x>0</x>
        <y>32</y>
        <w>32</w>
        <h>32</h>
        </Icon>
      </IconStyle>
    </Style>
    <Style id="12_r">
      <IconStyle>
        <Icon>
	<href>http://www.megalithic.co.uk/images/ge_icons_r.png</href>
        <x>32</x>
        <y>32</y>
        <w>32</w>
        <h>32</h>
        </Icon>
      </IconStyle>
    </Style>
    <Style id="13_r">
      <IconStyle>
        <Icon>
	<href>http://www.megalithic.co.uk/images/ge_icons_r.png</href>
        <x>64</x>
        <y>32</y>
        <w>32</w>
        <h>32</h>
        </Icon>
      </IconStyle>
    </Style>
    <Style id="14_r">
      <IconStyle>
        <Icon>
	<href>http://www.megalithic.co.uk/images/ge_icons_r.png</href>
        <x>96</x>
        <y>32</y>
        <w>32</w>
        <h>32</h>
        </Icon>
      </IconStyle>
    </Style>
    <Style id="15_r">
      <IconStyle>
        <Icon>
	<href>http://www.megalithic.co.uk/images/ge_icons_r.png</href>
        <x>128</x>
        <y>32</y>
        <w>32</w>
        <h>32</h>
        </Icon>
      </IconStyle>
    </Style>
    <Style id="16_r">
      <IconStyle>
        <Icon>
	<href>http://www.megalithic.co.uk/images/ge_icons_r.png</href>
        <x>160</x>
        <y>32</y>
        <w>32</w>
        <h>32</h>
        </Icon>
      </IconStyle>
    </Style>
    <Style id="17_r">
      <IconStyle>
        <Icon>
	<href>http://www.megalithic.co.uk/images/ge_icons_r.png</href>
        <x>192</x>
        <y>32</y>
        <w>32</w>
        <h>32</h>
        </Icon>
      </IconStyle>
    </Style>
    <Style id="18_r">
      <IconStyle>
        <Icon>
	<href>http://www.megalithic.co.uk/images/ge_icons_r.png</href>
        <x>224</x>
        <y>32</y>
        <w>32</w>
        <h>32</h>
        </Icon>
      </IconStyle>
    </Style>
    <Style id="19_r">
      <IconStyle>
        <Icon>
	<href>http://www.megalithic.co.uk/images/ge_icons_r.png</href>
        <x>256</x>
        <y>32</y>
        <w>32</w>
        <h>32</h>
        </Icon>
      </IconStyle>
    </Style>
    <Style id="20_r">
      <IconStyle>
        <Icon>
	<href>http://www.megalithic.co.uk/images/ge_icons_r.png</href>
        <x>288</x>
        <y>32</y>
        <w>32</w>
        <h>32</h>
        </Icon>
      </IconStyle>
    </Style>
    <Style id="21_r">
      <IconStyle>
        <Icon>
	<href>http://www.megalithic.co.uk/images/ge_icons_r.png</href>
        <x>0</x>
        <y>64</y>
        <w>32</w>
        <h>32</h>
        </Icon>
      </IconStyle>
    </Style>
    <Style id="22_r">
      <IconStyle>
        <Icon>
	<href>http://www.megalithic.co.uk/images/ge_icons_r.png</href>
        <x>32</x>
        <y>64</y>
        <w>32</w>
        <h>32</h>
        </Icon>
      </IconStyle>
    </Style>
    <Style id="23_r">
      <IconStyle>
        <Icon>
	<href>http://www.megalithic.co.uk/images/ge_icons_r.png</href>
        <x>64</x>
        <y>64</y>
        <w>32</w>
        <h>32</h>
        </Icon>
      </IconStyle>
    </Style>
    <Style id="24_r">
      <IconStyle>
        <Icon>
	<href>http://www.megalithic.co.uk/images/ge_icons_r.png</href>
        <x>96</x>
        <y>64</y>
        <w>32</w>
        <h>32</h>
        </Icon>
      </IconStyle>
    </Style>
    <Style id="25_r">
      <IconStyle>
        <Icon>
	<href>http://www.megalithic.co.uk/images/ge_icons_r.png</href>
        <x>128</x>
        <y>64</y>
        <w>32</w>
        <h>32</h>
        </Icon>
      </IconStyle>
    </Style>
    <Style id="26_r">
      <IconStyle>
        <Icon>
	<href>http://www.megalithic.co.uk/images/ge_icons_r.png</href>
        <x>160</x>
        <y>64</y>
        <w>32</w>
        <h>32</h>
        </Icon>
      </IconStyle>
    </Style>
    <Style id="27_r">
      <IconStyle>
        <Icon>
	<href>http://www.megalithic.co.uk/images/ge_icons_r.png</href>
        <x>192</x>
        <y>64</y>
        <w>32</w>
        <h>32</h>
        </Icon>
      </IconStyle>
    </Style>
    <Style id="28_r">
      <IconStyle>
        <Icon>
	<href>http://www.megalithic.co.uk/images/ge_icons_r.png</href>
        <x>224</x>
        <y>64</y>
        <w>32</w>
        <h>32</h>
        </Icon>
      </IconStyle>
    </Style>
    <Style id="29_r">
      <IconStyle>
        <Icon>
	<href>http://www.megalithic.co.uk/images/ge_icons_r.png</href>
        <x>256</x>
        <y>64</y>
        <w>32</w>
        <h>32</h>
        </Icon>
      </IconStyle>
    </Style>
    <Style id="30_r">
      <IconStyle>
        <Icon>
	<href>http://www.megalithic.co.uk/images/ge_icons_r.png</href>
        <x>288</x>
        <y>64</y>
        <w>32</w>
        <h>32</h>
        </Icon>
      </IconStyle>
    </Style>
    <Style id="31_r">
      <IconStyle>
        <Icon>
	<href>http://www.megalithic.co.uk/images/ge_icons_r.png</href>
        <x>0</x>
        <y>96</y>
        <w>32</w>
        <h>32</h>
        </Icon>
      </IconStyle>
    </Style>
    <Style id="32_r">
      <IconStyle>
        <Icon>
	<href>http://www.megalithic.co.uk/images/ge_icons_r.png</href>
        <x>32</x>
        <y>96</y>
        <w>32</w>
        <h>32</h>
        </Icon>
      </IconStyle>
    </Style>
    <Style id="33_r">
      <IconStyle>
        <Icon>
	<href>http://www.megalithic.co.uk/images/ge_icons_r.png</href>
        <x>64</x>
        <y>96</y>
        <w>32</w>
        <h>32</h>
        </Icon>
      </IconStyle>
    </Style>
    <Style id="34_r">
      <IconStyle>
        <Icon>
	<href>http://www.megalithic.co.uk/images/ge_icons_r.png</href>
        <x>96</x>
        <y>96</y>
        <w>32</w>
        <h>32</h>
        </Icon>
      </IconStyle>
    </Style>
    <Style id="35_r">
      <IconStyle>
        <Icon>
	<href>http://www.megalithic.co.uk/images/ge_icons_r.png</href>
        <x>128</x>
        <y>96</y>
        <w>32</w>
        <h>32</h>
        </Icon>
      </IconStyle>
    </Style>
    <Style id="36_r">
      <IconStyle>
        <Icon>
	<href>http://www.megalithic.co.uk/images/ge_icons_r.png</href>
        <x>160</x>
        <y>96</y>
        <w>32</w>
        <h>32</h>
        </Icon>
      </IconStyle>
    </Style>
    <Style id="37_r">
      <IconStyle>
        <Icon>
	<href>http://www.megalithic.co.uk/images/ge_icons_r.png</href>
        <x>192</x>
        <y>96</y>
        <w>32</w>
        <h>32</h>
        </Icon>
      </IconStyle>
    </Style>
    <Style id="38_r">
      <IconStyle>
        <Icon>
	<href>http://www.megalithic.co.uk/images/ge_icons_r.png</href>
        <x>224</x>
        <y>96</y>
        <w>32</w>
        <h>32</h>
        </Icon>
      </IconStyle>
    </Style>
    <Style id="39_r">
      <IconStyle>
        <Icon>
	<href>http://www.megalithic.co.uk/images/ge_icons_r.png</href>
        <x>256</x>
        <y>96</y>
        <w>32</w>
        <h>32</h>
        </Icon>
      </IconStyle>
    </Style>
    <Style id="40_r">
      <IconStyle>
        <Icon>
	<href>http://www.megalithic.co.uk/images/ge_icons_r.png</href>
        <x>288</x>
        <y>96</y>
        <w>32</w>
        <h>32</h>
        </Icon>
      </IconStyle>
    </Style>
    <Style id="41_r">
      <IconStyle>
        <Icon>
	<href>http://www.megalithic.co.uk/images/ge_icons_r.png</href>
        <x>0</x>
        <y>128</y>
        <w>32</w>
        <h>32</h>
        </Icon>
      </IconStyle>
    </Style>
    <Style id="42_r">
      <IconStyle>
        <Icon>
	<href>http://www.megalithic.co.uk/images/ge_icons_r.png</href>
        <x>32</x>
        <y>128</y>
        <w>32</w>
        <h>32</h>
        </Icon>
      </IconStyle>
    </Style>
    <Style id="43_r">
      <IconStyle>
        <Icon>
	<href>http://www.megalithic.co.uk/images/ge_icons_r.png</href>
        <x>64</x>
        <y>128</y>
        <w>32</w>
        <h>32</h>
        </Icon>
      </IconStyle>
    </Style>
    <Style id="44_r">
      <IconStyle>
        <Icon>
	<href>http://www.megalithic.co.uk/images/ge_icons_r.png</href>
        <x>96</x>
        <y>128</y>
        <w>32</w>
        <h>32</h>
        </Icon>
      </IconStyle>
    </Style>
    <Style id="45_r">
      <IconStyle>
        <Icon>
	<href>http://www.megalithic.co.uk/images/ge_icons_r.png</href>
        <x>128</x>
        <y>128</y>
        <w>32</w>
        <h>32</h>
        </Icon>
      </IconStyle>
    </Style>
    <Style id="46_r">
      <IconStyle>
        <Icon>
	<href>http://www.megalithic.co.uk/images/ge_icons_r.png</href>
        <x>160</x>
        <y>128</y>
        <w>32</w>
        <h>32</h>
        </Icon>
      </IconStyle>
    </Style>
    <Style id="47_r">
      <IconStyle>
        <Icon>
	<href>http://www.megalithic.co.uk/images/ge_icons_r.png</href>
        <x>192</x>
        <y>128</y>
        <w>32</w>
        <h>32</h>
        </Icon>
      </IconStyle>
    </Style>
    <Style id="48_r">
      <IconStyle>
        <Icon>
	<href>http://www.megalithic.co.uk/images/ge_icons_r.png</href>
        <x>224</x>
        <y>128</y>
        <w>32</w>
        <h>32</h>
        </Icon>
      </IconStyle>
    </Style>
    <Style id="58_r">
      <IconStyle>
        <Icon>
	<href>http://www.megalithic.co.uk/images/ge_icons_r.png</href>
        <x>224</x>
        <y>160</y>
        <w>32</w>
        <h>32</h>
        </Icon>
      </IconStyle>
    </Style>
    <Style id="59_r">
      <IconStyle>
        <Icon>
	<href>http://www.megalithic.co.uk/images/ge_icons_r.png</href>
        <x>256</x>
        <y>160</y>
        <w>32</w>
        <h>32</h>
        </Icon>
      </IconStyle>
    </Style>    
    <Style id="60_r">
      <IconStyle>
        <Icon>
	<href>http://www.megalithic.co.uk/images/ge_icons_r.png</href>
        <x>288</x>
        <y>160</y>
        <w>32</w>
        <h>32</h>
        </Icon>
      </IconStyle>
    </Style>
    <Style id="61_r">
      <IconStyle>
        <Icon>
	<href>http://www.megalithic.co.uk/images/ge_icons_r.png</href>
        <x>0</x>
        <y>192</y>
        <w>32</w>
        <h>32</h>
        </Icon>
      </IconStyle>
    </Style>
    <Style id="62_r">
      <IconStyle>
        <Icon>
	<href>http://www.megalithic.co.uk/images/ge_icons_r.png</href>
        <x>32</x>
        <y>192</y>
        <w>32</w>
        <h>32</h>
        </Icon>
      </IconStyle>
    </Style>
    <Style id="63_r">
      <IconStyle>
        <Icon>
	<href>http://www.megalithic.co.uk/images/ge_icons_r.png</href>
        <x>64</x>
        <y>192</y>
        <w>32</w>
        <h>32</h>
        </Icon>
      </IconStyle>
    </Style>
     <Style id="64_r">
      <IconStyle>
        <Icon>
	<href>http://www.megalithic.co.uk/images/ge_icons_r.png</href>
        <x>96</x>
        <y>192</y>
        <w>32</w>
        <h>32</h>
        </Icon>
      </IconStyle>
    </Style>
    <Style id="65_r">
      <IconStyle>
        <Icon>
	<href>http://www.megalithic.co.uk/images/ge_icons_r.png</href>
        <x>128</x>
        <y>192</y>
        <w>32</w>
        <h>32</h>
        </Icon>
      </IconStyle>
    </Style>
    <Style id="66_r">
      <IconStyle>
        <Icon>
	<href>http://www.megalithic.co.uk/images/ge_icons_r.png</href>
        <x>160</x>
        <y>192</y>
        <w>32</w>
        <h>32</h>
        </Icon>
      </IconStyle>
    </Style>
    <Style id="67_r">
      <IconStyle>
        <Icon>
	<href>http://www.megalithic.co.uk/images/ge_icons_r.png</href>
        <x>192</x>
        <y>192</y>
        <w>32</w>
        <h>32</h>
        </Icon>
      </IconStyle>
    </Style>
    <Style id="68_r">
      <IconStyle>
        <Icon>
	<href>http://www.megalithic.co.uk/images/ge_icons_r.png</href>
        <x>224</x>
        <y>192</y>
        <w>32</w>
        <h>32</h>
        </Icon>
      </IconStyle>
    </Style>
    <Style id="69_r">
      <IconStyle>
        <Icon>
	<href>http://www.megalithic.co.uk/images/ge_icons_r.png</href>
        <x>256</x>
        <y>192</y>
        <w>32</w>
        <h>32</h>
        </Icon>
      </IconStyle>
    </Style>
    <Style id="1050034310_r">
      <IconStyle>
        <Icon>
	<href>http://www.megalithic.co.uk/images/ge_icons_r.png</href>
        <x>0</x>
        <y>224</y>
        <w>32</w>
        <h>32</h>
        </Icon>
      </IconStyle>
    </Style>
    <Style id="1050034311_r">
      <IconStyle>
        <Icon>
	<href>http://www.megalithic.co.uk/images/ge_icons_r.png</href>
        <x>32</x>
        <y>224</y>
        <w>32</w>
        <h>32</h>
        </Icon>
      </IconStyle>
    </Style>
    <Style id="1050034312_r">
      <IconStyle>
        <Icon>
	<href>http://www.megalithic.co.uk/images/ge_icons_r.png</href>
        <x>64</x>
        <y>224</y>
        <w>32</w>
        <h>32</h>
        </Icon>
      </IconStyle>
    </Style>
    <Style id="1_y">
      <IconStyle>
        <Icon>
	<href>http://www.megalithic.co.uk/images/ge_icons_y.png</href>
        <x>0</x>
        <y>0</y>
        <w>32</w>
        <h>32</h>
        </Icon>
      </IconStyle>
    </Style>
    <Style id="2_y">
      <IconStyle>
        <Icon>
	<href>http://www.megalithic.co.uk/images/ge_icons_y.png</href>
        <x>32</x>
        <y>0</y>
        <w>32</w>
        <h>32</h>
        </Icon>
      </IconStyle>
    </Style>
    <Style id="3_y">
      <IconStyle>
        <Icon>
	<href>http://www.megalithic.co.uk/images/ge_icons_y.png</href>
        <x>64</x>
        <y>0</y>
        <w>32</w>
        <h>32</h>
        </Icon>
      </IconStyle>
    </Style>
     <Style id="4_y">
      <IconStyle>
        <Icon>
	<href>http://www.megalithic.co.uk/images/ge_icons_y.png</href>
        <x>96</x>
        <y>0</y>
        <w>32</w>
        <h>32</h>
        </Icon>
      </IconStyle>
    </Style>
    <Style id="5_y">
      <IconStyle>
        <Icon>
	<href>http://www.megalithic.co.uk/images/ge_icons_y.png</href>
        <x>128</x>
        <y>0</y>
        <w>32</w>
        <h>32</h>
        </Icon>
      </IconStyle>
    </Style>
    <Style id="6_y">
      <IconStyle>
        <Icon>
	<href>http://www.megalithic.co.uk/images/ge_icons_y.png</href>
        <x>160</x>
        <y>0</y>
        <w>32</w>
        <h>32</h>
        </Icon>
      </IconStyle>
    </Style>
    <Style id="7_y">
      <IconStyle>
        <Icon>
	<href>http://www.megalithic.co.uk/images/ge_icons_y.png</href>
        <x>192</x>
        <y>0</y>
        <w>32</w>
        <h>32</h>
        </Icon>
      </IconStyle>
    </Style>
    <Style id="8_y">
      <IconStyle>
        <Icon>
	<href>http://www.megalithic.co.uk/images/ge_icons_y.png</href>
        <x>224</x>
        <y>0</y>
        <w>32</w>
        <h>32</h>
        </Icon>
      </IconStyle>
    </Style>
    <Style id="9_y">
      <IconStyle>
        <Icon>
	<href>http://www.megalithic.co.uk/images/ge_icons_y.png</href>
        <x>256</x>
        <y>32</y>
        <w>32</w>
        <h>32</h>
        </Icon>
      </IconStyle>
    </Style>
    <Style id="10_y">
      <IconStyle>
        <Icon>
	<href>http://www.megalithic.co.uk/images/ge_icons_y.png</href>
        <x>288</x>
        <y>32</y>
        <w>32</w>
        <h>32</h>
        </Icon>
      </IconStyle>
    </Style>
    <Style id="11_y">
      <IconStyle>
        <Icon>
	<href>http://www.megalithic.co.uk/images/ge_icons_y.png</href>
        <x>0</x>
        <y>32</y>
        <w>32</w>
        <h>32</h>
        </Icon>
      </IconStyle>
    </Style>
    <Style id="12_y">
      <IconStyle>
        <Icon>
	<href>http://www.megalithic.co.uk/images/ge_icons_y.png</href>
        <x>32</x>
        <y>32</y>
        <w>32</w>
        <h>32</h>
        </Icon>
      </IconStyle>
    </Style>
    <Style id="13_y">
      <IconStyle>
        <Icon>
	<href>http://www.megalithic.co.uk/images/ge_icons_y.png</href>
        <x>64</x>
        <y>32</y>
        <w>32</w>
        <h>32</h>
        </Icon>
      </IconStyle>
    </Style>
    <Style id="14_y">
      <IconStyle>
        <Icon>
	<href>http://www.megalithic.co.uk/images/ge_icons_y.png</href>
        <x>96</x>
        <y>32</y>
        <w>32</w>
        <h>32</h>
        </Icon>
      </IconStyle>
    </Style>
    <Style id="15_y">
      <IconStyle>
        <Icon>
	<href>http://www.megalithic.co.uk/images/ge_icons_y.png</href>
        <x>128</x>
        <y>32</y>
        <w>32</w>
        <h>32</h>
        </Icon>
      </IconStyle>
    </Style>
    <Style id="16_y">
      <IconStyle>
        <Icon>
	<href>http://www.megalithic.co.uk/images/ge_icons_y.png</href>
        <x>160</x>
        <y>32</y>
        <w>32</w>
        <h>32</h>
        </Icon>
      </IconStyle>
    </Style>
    <Style id="17_y">
      <IconStyle>
        <Icon>
	<href>http://www.megalithic.co.uk/images/ge_icons_y.png</href>
        <x>192</x>
        <y>32</y>
        <w>32</w>
        <h>32</h>
        </Icon>
      </IconStyle>
    </Style>
    <Style id="18_y">
      <IconStyle>
        <Icon>
	<href>http://www.megalithic.co.uk/images/ge_icons_y.png</href>
        <x>224</x>
        <y>32</y>
        <w>32</w>
        <h>32</h>
        </Icon>
      </IconStyle>
    </Style>
    <Style id="19_y">
      <IconStyle>
        <Icon>
	<href>http://www.megalithic.co.uk/images/ge_icons_y.png</href>
        <x>256</x>
        <y>32</y>
        <w>32</w>
        <h>32</h>
        </Icon>
      </IconStyle>
    </Style>
    <Style id="20_y">
      <IconStyle>
        <Icon>
	<href>http://www.megalithic.co.uk/images/ge_icons_y.png</href>
        <x>288</x>
        <y>32</y>
        <w>32</w>
        <h>32</h>
        </Icon>
      </IconStyle>
    </Style>
    <Style id="21_y">
      <IconStyle>
        <Icon>
	<href>http://www.megalithic.co.uk/images/ge_icons_y.png</href>
        <x>0</x>
        <y>64</y>
        <w>32</w>
        <h>32</h>
        </Icon>
      </IconStyle>
    </Style>
    <Style id="22_y">
      <IconStyle>
        <Icon>
	<href>http://www.megalithic.co.uk/images/ge_icons_y.png</href>
        <x>32</x>
        <y>64</y>
        <w>32</w>
        <h>32</h>
        </Icon>
      </IconStyle>
    </Style>
    <Style id="23_y">
      <IconStyle>
        <Icon>
	<href>http://www.megalithic.co.uk/images/ge_icons_y.png</href>
        <x>64</x>
        <y>64</y>
        <w>32</w>
        <h>32</h>
        </Icon>
      </IconStyle>
    </Style>
    <Style id="24_y">
      <IconStyle>
        <Icon>
	<href>http://www.megalithic.co.uk/images/ge_icons_y.png</href>
        <x>96</x>
        <y>64</y>
        <w>32</w>
        <h>32</h>
        </Icon>
      </IconStyle>
    </Style>
    <Style id="25_y">
      <IconStyle>
        <Icon>
	<href>http://www.megalithic.co.uk/images/ge_icons_y.png</href>
        <x>128</x>
        <y>64</y>
        <w>32</w>
        <h>32</h>
        </Icon>
      </IconStyle>
    </Style>
    <Style id="26_y">
      <IconStyle>
        <Icon>
	<href>http://www.megalithic.co.uk/images/ge_icons_y.png</href>
        <x>160</x>
        <y>64</y>
        <w>32</w>
        <h>32</h>
        </Icon>
      </IconStyle>
    </Style>
    <Style id="27_y">
      <IconStyle>
        <Icon>
	<href>http://www.megalithic.co.uk/images/ge_icons_y.png</href>
        <x>192</x>
        <y>64</y>
        <w>32</w>
        <h>32</h>
        </Icon>
      </IconStyle>
    </Style>
    <Style id="28_y">
      <IconStyle>
        <Icon>
	<href>http://www.megalithic.co.uk/images/ge_icons_y.png</href>
        <x>224</x>
        <y>64</y>
        <w>32</w>
        <h>32</h>
        </Icon>
      </IconStyle>
    </Style>
    <Style id="29_y">
      <IconStyle>
        <Icon>
	<href>http://www.megalithic.co.uk/images/ge_icons_y.png</href>
        <x>256</x>
        <y>64</y>
        <w>32</w>
        <h>32</h>
        </Icon>
      </IconStyle>
    </Style>
    <Style id="30_y">
      <IconStyle>
        <Icon>
	<href>http://www.megalithic.co.uk/images/ge_icons_y.png</href>
        <x>288</x>
        <y>64</y>
        <w>32</w>
        <h>32</h>
        </Icon>
      </IconStyle>
    </Style>
    <Style id="31_y">
      <IconStyle>
        <Icon>
	<href>http://www.megalithic.co.uk/images/ge_icons_y.png</href>
        <x>0</x>
        <y>96</y>
        <w>32</w>
        <h>32</h>
        </Icon>
      </IconStyle>
    </Style>
    <Style id="32_y">
      <IconStyle>
        <Icon>
	<href>http://www.megalithic.co.uk/images/ge_icons_y.png</href>
        <x>32</x>
        <y>96</y>
        <w>32</w>
        <h>32</h>
        </Icon>
      </IconStyle>
    </Style>
    <Style id="33_y">
      <IconStyle>
        <Icon>
	<href>http://www.megalithic.co.uk/images/ge_icons_y.png</href>
        <x>64</x>
        <y>96</y>
        <w>32</w>
        <h>32</h>
        </Icon>
      </IconStyle>
    </Style>
    <Style id="34_y">
      <IconStyle>
        <Icon>
	<href>http://www.megalithic.co.uk/images/ge_icons_y.png</href>
        <x>96</x>
        <y>96</y>
        <w>32</w>
        <h>32</h>
        </Icon>
      </IconStyle>
    </Style>
    <Style id="35_y">
      <IconStyle>
        <Icon>
	<href>http://www.megalithic.co.uk/images/ge_icons_y.png</href>
        <x>128</x>
        <y>96</y>
        <w>32</w>
        <h>32</h>
        </Icon>
      </IconStyle>
    </Style>
    <Style id="36_y">
      <IconStyle>
        <Icon>
	<href>http://www.megalithic.co.uk/images/ge_icons_y.png</href>
        <x>160</x>
        <y>96</y>
        <w>32</w>
        <h>32</h>
        </Icon>
      </IconStyle>
    </Style>
    <Style id="37_y">
      <IconStyle>
        <Icon>
	<href>http://www.megalithic.co.uk/images/ge_icons_y.png</href>
        <x>192</x>
        <y>96</y>
        <w>32</w>
        <h>32</h>
        </Icon>
      </IconStyle>
    </Style>
    <Style id="38_y">
      <IconStyle>
        <Icon>
	<href>http://www.megalithic.co.uk/images/ge_icons_y.png</href>
        <x>224</x>
        <y>96</y>
        <w>32</w>
        <h>32</h>
        </Icon>
      </IconStyle>
    </Style>
    <Style id="39_y">
      <IconStyle>
        <Icon>
	<href>http://www.megalithic.co.uk/images/ge_icons_y.png</href>
        <x>256</x>
        <y>96</y>
        <w>32</w>
        <h>32</h>
        </Icon>
      </IconStyle>
    </Style>
    <Style id="40_y">
      <IconStyle>
        <Icon>
	<href>http://www.megalithic.co.uk/images/ge_icons_y.png</href>
        <x>288</x>
        <y>96</y>
        <w>32</w>
        <h>32</h>
        </Icon>
      </IconStyle>
    </Style>
    <Style id="41_y">
      <IconStyle>
        <Icon>
	<href>http://www.megalithic.co.uk/images/ge_icons_y.png</href>
        <x>0</x>
        <y>128</y>
        <w>32</w>
        <h>32</h>
        </Icon>
      </IconStyle>
    </Style>
    <Style id="42_y">
      <IconStyle>
        <Icon>
	<href>http://www.megalithic.co.uk/images/ge_icons_y.png</href>
        <x>32</x>
        <y>128</y>
        <w>32</w>
        <h>32</h>
        </Icon>
      </IconStyle>
    </Style>
    <Style id="43_y">
      <IconStyle>
        <Icon>
	<href>http://www.megalithic.co.uk/images/ge_icons_y.png</href>
        <x>64</x>
        <y>128</y>
        <w>32</w>
        <h>32</h>
        </Icon>
      </IconStyle>
    </Style>
    <Style id="44_y">
      <IconStyle>
        <Icon>
	<href>http://www.megalithic.co.uk/images/ge_icons_y.png</href>
        <x>96</x>
        <y>128</y>
        <w>32</w>
        <h>32</h>
        </Icon>
      </IconStyle>
    </Style>
    <Style id="45_y">
      <IconStyle>
        <Icon>
	<href>http://www.megalithic.co.uk/images/ge_icons_y.png</href>
        <x>128</x>
        <y>128</y>
        <w>32</w>
        <h>32</h>
        </Icon>
      </IconStyle>
    </Style>
    <Style id="46_y">
      <IconStyle>
        <Icon>
	<href>http://www.megalithic.co.uk/images/ge_icons_y.png</href>
        <x>160</x>
        <y>128</y>
        <w>32</w>
        <h>32</h>
        </Icon>
      </IconStyle>
    </Style>
    <Style id="47_y">
      <IconStyle>
        <Icon>
	<href>http://www.megalithic.co.uk/images/ge_icons_y.png</href>
        <x>192</x>
        <y>128</y>
        <w>32</w>
        <h>32</h>
        </Icon>
      </IconStyle>
    </Style>
    <Style id="48_y">
      <IconStyle>
        <Icon>
	<href>http://www.megalithic.co.uk/images/ge_icons_y.png</href>
        <x>224</x>
        <y>128</y>
        <w>32</w>
        <h>32</h>
        </Icon>
      </IconStyle>
    </Style>
    <Style id="58_y">
      <IconStyle>
        <Icon>
	<href>http://www.megalithic.co.uk/images/ge_icons_y.png</href>
        <x>224</x>
        <y>160</y>
        <w>32</w>
        <h>32</h>
        </Icon>
      </IconStyle>
    </Style>
    <Style id="59_y">
      <IconStyle>
        <Icon>
	<href>http://www.megalithic.co.uk/images/ge_icons_y.png</href>
        <x>256</x>
        <y>160</y>
        <w>32</w>
        <h>32</h>
        </Icon>
      </IconStyle>
    </Style>    
    <Style id="60_y">
      <IconStyle>
        <Icon>
	<href>http://www.megalithic.co.uk/images/ge_icons_y.png</href>
        <x>288</x>
        <y>160</y>
        <w>32</w>
        <h>32</h>
        </Icon>
      </IconStyle>
    </Style>
    <Style id="61_y">
      <IconStyle>
        <Icon>
	<href>http://www.megalithic.co.uk/images/ge_icons_y.png</href>
        <x>0</x>
        <y>192</y>
        <w>32</w>
        <h>32</h>
        </Icon>
      </IconStyle>
    </Style>
    <Style id="62_y">
      <IconStyle>
        <Icon>
	<href>http://www.megalithic.co.uk/images/ge_icons_y.png</href>
        <x>32</x>
        <y>192</y>
        <w>32</w>
        <h>32</h>
        </Icon>
      </IconStyle>
    </Style>
    <Style id="63_y">
      <IconStyle>
        <Icon>
	<href>http://www.megalithic.co.uk/images/ge_icons_y.png</href>
        <x>64</x>
        <y>192</y>
        <w>32</w>
        <h>32</h>
        </Icon>
      </IconStyle>
    </Style>
     <Style id="64_y">
      <IconStyle>
        <Icon>
	<href>http://www.megalithic.co.uk/images/ge_icons_y.png</href>
        <x>96</x>
        <y>192</y>
        <w>32</w>
        <h>32</h>
        </Icon>
      </IconStyle>
    </Style>
    <Style id="65_y">
      <IconStyle>
        <Icon>
	<href>http://www.megalithic.co.uk/images/ge_icons_y.png</href>
        <x>128</x>
        <y>192</y>
        <w>32</w>
        <h>32</h>
        </Icon>
      </IconStyle>
    </Style>
    <Style id="66_y">
      <IconStyle>
        <Icon>
	<href>http://www.megalithic.co.uk/images/ge_icons_y.png</href>
        <x>160</x>
        <y>192</y>
        <w>32</w>
        <h>32</h>
        </Icon>
      </IconStyle>
    </Style>
    <Style id="67_y">
      <IconStyle>
        <Icon>
	<href>http://www.megalithic.co.uk/images/ge_icons_y.png</href>
        <x>192</x>
        <y>192</y>
        <w>32</w>
        <h>32</h>
        </Icon>
      </IconStyle>
    </Style>
    <Style id="68_y">
      <IconStyle>
        <Icon>
	<href>http://www.megalithic.co.uk/images/ge_icons_y.png</href>
        <x>224</x>
        <y>192</y>
        <w>32</w>
        <h>32</h>
        </Icon>
      </IconStyle>
    </Style>
    <Style id="69_y">
      <IconStyle>
        <Icon>
	<href>http://www.megalithic.co.uk/images/ge_icons_y.png</href>
        <x>256</x>
        <y>192</y>
        <w>32</w>
        <h>32</h>
        </Icon>
      </IconStyle>
    </Style>
    <Style id="1050034310_y">
      <IconStyle>
        <Icon>
	<href>http://www.megalithic.co.uk/images/ge_icons_y.png</href>
        <x>0</x>
        <y>224</y>
        <w>32</w>
        <h>32</h>
        </Icon>
      </IconStyle>
    </Style>
    <Style id="1050034311_y">
      <IconStyle>
        <Icon>
	<href>http://www.megalithic.co.uk/images/ge_icons_y.png</href>
        <x>32</x>
        <y>224</y>
        <w>32</w>
        <h>32</h>
        </Icon>
      </IconStyle>
    </Style>
    <Style id="1050034312_y">
      <IconStyle>
        <Icon>
	<href>http://www.megalithic.co.uk/images/ge_icons_y.png</href>
        <x>64</x>
        <y>224</y>
        <w>32</w>
        <h>32</h>
        </Icon>
      </IconStyle>
    </Style>               
    <Folder><name><![CDATA[Ancient Village or Settlement]]></name><open>0</open>
<Placemark>   <name>Viking longhouse Kvívík, Faeröer</name>   <description><![CDATA[
        <b>Type:</b> Ancient Village or Settlement <br /> Pos Accuracy: <b>4</b> Condition: <b>2</b> (5 is best)   Ambience: <b>3</b>  Access: <b>5</b>  (5 is best)<br />
                    <b>Lat:</b> 62.116936 &nbsp;&nbsp;&nbsp;<b>Long</b>: -7.075102<br />
                    Ancient Village or Settlement in Denmark. Located on the Faeröer islands...<b>.</b> (c) Meg. Portal contributors.<br />
		     <a href="http://www.megalithic.co.uk/article.php?sid=54977" >Link To More Information</a><br />
                    ]]></description>    <styleUrl>#2_g</styleUrl>   <Point>     <coordinates>-7.075102,62.116936,0</coordinates>   </Point>  </Placemark>
<Placemark>   <name>Viking longhouse Leirvík, Faeröer</name>   <description><![CDATA[
        <b>Type:</b> Ancient Village or Settlement <br /> Pos Accuracy: <b>4</b> Condition: <b>2</b> (5 is best)   Ambience: <b>3</b>  Access: <b>5</b>  (5 is best)<br />
                    <b>Lat:</b> 62.212623 &nbsp;&nbsp;&nbsp;<b>Long</b>: -6.711457<br />
                    Ancient Village or Settlement in Denmark. Located on the Faeröer islands...<b>.</b> (c) Meg. Portal contributors.<br />
		     <a href="http://www.megalithic.co.uk/article.php?sid=54970" >Link To More Information</a><br />
                    ]]></description>    <styleUrl>#2_g</styleUrl>   <Point>     <coordinates>-6.711457,62.212623,0</coordinates>   </Point>  </Placemark></Folder></Document>
</kml>